{
  "type": "FeatureCollection",
  "features": [
    {
      "type": "Feature",
      "properties": {
        "norad_id": 58655,
        "name": "BEIDOU-3 M26 (C48)",
        "group": "beidou",
        "lat": 0.11395559875183305,
        "lon": -111.79038431077433,
        "alt_km": 21526.178530434325,
        "timestamp": "2025-12-22T04:03:39.434814+00:00",
        "meta_object_name": "BEIDOU-3 M26 (C48)",
        "meta_object_id": "2023-207B",
        "meta_epoch": "2025-12-21T08:44:02.320800",
        "meta_mean_motion": 1.8623129,
        "meta_eccentricity": 0.0004111,
        "meta_inclination": 55.5938,
        "meta_ra_of_asc_node": 68.2956,
        "meta_arg_of_pericenter": 259.2953,
        "meta_mean_anomaly": 100.7044,
        "meta_ephemeris_type": 0,
        "meta_classification_type": "U",
        "meta_norad_cat_id": 58655,
        "meta_element_set_no": 999,
        "meta_rev_at_epoch": 1351,
        "meta_bstar": 0,
        "meta_mean_motion_dot": -3.7e-07,
        "meta_mean_motion_ddot": 0,
        "tle_line1": "1 58655U 23207B   25355.36391575 -.00000037  00000+0  00000+0 0  9991",
        "tle_line2": "2 58655  55.5938  68.2956 0004111 259.2953 100.7044  1.86231290 13512"
      },
      "geometry": {
        "type": "Point",
        "coordinates": [
          -111.79038431077433,
          0.11395559875183305
        ]
      }
    },
    {
      "type": "Feature",
      "properties": {
        "norad_id": 61186,
        "name": "BEIDOU-3 M25 (C47)",
        "group": "beidou",
        "lat": -46.71944696119297,
        "lon": -100.51462015185592,
        "alt_km": 21518.19671972484,
        "timestamp": "2025-12-22T04:03:39.434825+00:00",
        "meta_object_name": "BEIDOU-3 M25 (C47)",
        "meta_object_id": "2024-168B",
        "meta_epoch": "2025-12-21T10:54:12.559392",
        "meta_mean_motion": 1.86230226,
        "meta_eccentricity": 0.00054533,
        "meta_inclination": 54.6344,
        "meta_ra_of_asc_node": 308.4188,
        "meta_arg_of_pericenter": 299.6756,
        "meta_mean_anomaly": 237.8086,
        "meta_ephemeris_type": 0,
        "meta_classification_type": "U",
        "meta_norad_cat_id": 61186,
        "meta_element_set_no": 999,
        "meta_rev_at_epoch": 847,
        "meta_bstar": 0,
        "meta_mean_motion_dot": -6.3e-07,
        "meta_mean_motion_ddot": 0,
        "tle_line1": "1 61186U 24168B   25355.45431203 -.00000063  00000+0  00000+0 0  9993",
        "tle_line2": "2 61186  54.6344 308.4188 0005453 299.6756 237.8086  1.86230226  8476"
      },
      "geometry": {
        "type": "Point",
        "coordinates": [
          -100.51462015185592,
          -46.71944696119297
        ]
      }
    },
    {
      "type": "Feature",
      "properties": {
        "norad_id": 61187,
        "name": "BEIDOU-3 M27 (C49)",
        "group": "beidou",
        "lat": 50.772176515679696,
        "lon": 8.72265728442129,
        "alt_km": 21522.333154666474,
        "timestamp": "2025-12-22T04:03:39.434836+00:00",
        "meta_object_name": "BEIDOU-3 M27 (C49)",
        "meta_object_id": "2024-168C",
        "meta_epoch": "2025-12-21T06:06:47.585952",
        "meta_mean_motion": 1.86230383,
        "meta_eccentricity": 0.0002534,
        "meta_inclination": 54.63,
        "meta_ra_of_asc_node": 308.4093,
        "meta_arg_of_pericenter": 340.0926,
        "meta_mean_anomaly": 198.5211,
        "meta_ephemeris_type": 0,
        "meta_classification_type": "U",
        "meta_norad_cat_id": 61187,
        "meta_element_set_no": 999,
        "meta_rev_at_epoch": 594,
        "meta_bstar": 0,
        "meta_mean_motion_dot": -6.4e-07,
        "meta_mean_motion_ddot": 0,
        "tle_line1": "1 61187U 24168C   25355.25471743 -.00000064  00000+0  00000+0 0  9996",
        "tle_line2": "2 61187  54.6300 308.4093 0002534 340.0926 198.5211  1.86230383  5947"
      },
      "geometry": {
        "type": "Point",
        "coordinates": [
          8.72265728442129,
          50.772176515679696
        ]
      }
    }
  ]
}